[{"OBJECT_NAME":"STARLINK-32377","OBJECT_ID":"2024-204Q","EPOCH":"2026-03-09T10:56:32.334720","MEAN_MOTION":15.30191472,"ECCENTRICITY":7.002e-5,"INCLINATION":53.1601,"RA_OF_ASC_NODE":128.0286,"ARG_OF_PERICENTER":64.339,"MEAN_ANOMALY":295.7684,"EPHEMERIS_TYPE":0,"CLASSIFICATION_TYPE":"U","NORAD_CAT_ID":61888,"ELEMENT_SET_NO":999,"REV_AT_EPOCH":7505,"BSTAR":-1.1329003e-5,"MEAN_MOTION_DOT":-6.94e-6,"MEAN_MOTION_DDOT":0},{"OBJECT_NAME":"KUIPER-00222","OBJECT_ID":"2026-030U","EPOCH":"2026-03-09T16:13:57.726048","MEAN_MOTION":15.32445377,"ECCENTRICITY":0.00128002,"INCLINATION":51.8817,"RA_OF_ASC_NODE":219.7147,"ARG_OF_PERICENTER":40.1845,"MEAN_ANOMALY":320.0084,"EPHEMERIS_TYPE":0,"CLASSIFICATION_TYPE":"U","NORAD_CAT_ID":67782,"ELEMENT_SET_NO":999,"REV_AT_EPOCH":508,"BSTAR":0.0017317201,"MEAN_MOTION_DOT":0.00055223,"MEAN_MOTION_DDOT":0}]
